NORAD_CAT_ID,OBJECT_NAME,OBJECT_TYPE,EPOCH,MEAN_MOTION,ECCENTRICITY,INCLINATION,RA_OF_ASC_NODE,ARG_OF_PERICENTER,MEAN_ANOMALY,BSTAR,MEAN_MOTION_DOT,MEAN_MOTION_DDOT,TLE_LINE0,TLE_LINE1,TLE_LINE2,SEMIMAJOR_AXIS,PERIOD,APOGEE,PERIGEE,DECAYED
52692.0,STARLINK-3993,PAYLOAD,2024-06-29 14:37:56,15.08836419,0.0001264,53.2172,38.5204,102.5073,257.606,0.00011137,1.485e-05,0.0,0 STARLINK-3993,1 52692U 22053AN  24181.60968162  .00001485  00000-0  11137-3 0  9994,2 52692  53.2172  38.5204 0001264 102.5073 257.6060 15.08836419117841,6917.891,95.438,540.631,538.882,0.0
52692.0,STARLINK-3993,PAYLOAD,2024-06-29 20:59:30,15.08818535,0.0001223,53.2177,37.3307,102.6889,257.424,-4.8291e-05,-1.056e-05,0.0,0 STARLINK-3993,1 52692U 22053AN  24181.87465890 -.00001056  00000-0 -48291-4 0  9991,2 52692  53.2177  37.3307 0001223 102.6889 257.4240 15.08818535117485,6917.946,95.439,540.657,538.965,0.0
52692.0,STARLINK-3993,PAYLOAD,2024-06-30 00:10:16,15.08832958,8.42e-05,53.2158,36.7394,82.3829,277.7259,-0.00011349,-2.093e-05,0.0,0 STARLINK-3993,1 52692U 22053AN  24182.00713368 -.00002093  00000-0 -11349-3 0  9998,2 52692  53.2158  36.7394 0000842  82.3829 277.7259 15.08832958117500,6917.902,95.438,540.349,539.184,0.0
52692.0,STARLINK-3993,PAYLOAD,2024-06-30 14:28:44,15.08836123,5.36e-05,53.218,34.0595,112.6824,247.4225,-3.6153e-05,-8.63e-06,0.0,0 STARLINK-3993,1 52692U 22053AN  24182.60328821 -.00000863  00000-0 -36153-4 0  9994,2 52692  53.2180  34.0595 0000536 112.6824 247.4225 15.08836123117999,6917.892,95.438,540.128,539.386,0.0
52692.0,STARLINK-3993,PAYLOAD,2024-06-30 20:50:16,15.08852107,0.0001054,53.2175,32.8719,118.9116,241.1982,-2.9512e-05,-7.58e-06,0.0,0 STARLINK-3993,1 52692U 22053AN  24182.86824102 -.00000758  00000-0 -29512-4 0  9999,2 52692  53.2175  32.8719 0001054 118.9116 241.1982 15.08852107117638,6917.843,95.437,540.438,538.979,0.0
52692.0,STARLINK-3993,PAYLOAD,2024-07-01 20:41:04,15.08833522,0.0001117,53.2171,28.4144,100.5674,259.5444,0.0002981,4.459e-05,0.0,0 STARLINK-3993,1 52692U 22053AN  24183.86185436  .00004459  00000-0  29810-3 0  9990,2 52692  53.2171  28.4144 0001117 100.5674 259.5444 15.08833522117785,6917.9,95.438,540.538,538.992,0.0
52692.0,STARLINK-3993,PAYLOAD,2024-07-02 06:13:22,15.08844372,0.000114,53.2177,26.6294,101.6269,258.4851,0.00029417,4.398e-05,0.0,0 STARLINK-3993,1 52692U 22053AN  24184.25928885  .00004398  00000-0  29417-3 0  9992,2 52692  53.2177  26.6294 0001140 101.6269 258.4851 15.08844372117847,6917.867,95.437,540.521,538.943,0.0
52692.0,STARLINK-3993,PAYLOAD,2024-07-02 14:10:18,15.08839502,0.0001824,53.2179,25.1461,114.9585,245.1597,4.8338e-05,4.81e-06,0.0,0 STARLINK-3993,1 52692U 22053AN  24184.59049226  .00000481  00000-0  48338-4 0  9995,2 52692  53.2179  25.1461 0001824 114.9585 245.1597 15.08839502118295,6917.882,95.438,541.009,538.485,0.0
52692.0,STARLINK-3993,PAYLOAD,2024-07-02 18:56:28,15.08833877,0.0001243,53.2181,24.25,104.84,255.273,-8.2955e-05,-1.608e-05,0.0,0 STARLINK-3993,1 52692U 22053AN  24184.78921449 -.00001608  00000-0 -82955-4 0  9999,2 52692  53.2181  24.2500 0001243 104.8400 255.2730 15.08833877117920,6917.899,95.438,540.624,538.904,0.0
52692.0,STARLINK-3993,PAYLOAD,2024-07-03 06:04:09,15.08847662,7.54e-05,53.2167,22.1659,92.1757,267.9322,7.4634e-05,9.01e-06,0.0,0 STARLINK-3993,1 52692U 22053AN  24185.25288553  .00000901  00000-0  74634-4 0  9992,2 52692  53.2167  22.1659 0000754  92.1757 267.9322 15.08847662117997,6917.857,95.437,540.244,539.2,0.0
52692.0,STARLINK-3993,PAYLOAD,2024-07-03 20:22:38,15.08837626,0.0001126,53.2173,19.49,77.2383,282.8734,2.404e-05,9.5e-07,0.0,0 STARLINK-3993,1 52692U 22053AN  24185.84905391  .00000095  00000-0  24040-4 0  9993,2 52692  53.2173  19.4900 0001126  77.2383 282.8734 15.08837626118088,6917.888,95.438,540.532,538.974,0.0
52692.0,STARLINK-3993,PAYLOAD,2024-07-03 21:58:01,15.08839684,0.0001241,53.2181,19.1933,86.9617,273.1517,5.3266e-05,5.6e-06,0.0,0 STARLINK-3993,1 52692U 22053AN  24185.91529311  .00000560  00000-0  53266-4 0  9994,2 52692  53.2181  19.1933 0001241  86.9617 273.1517 15.08839684118498,6917.881,95.438,540.605,538.888,0.0
52692.0,STARLINK-3993,PAYLOAD,2024-07-04 12:16:29,15.08849454,0.0001722,53.2141,16.5191,77.7592,282.3593,0.00016623,2.359e-05,0.0,0 STARLINK-3993,1 52692U 22053AN  24186.51144941  .00002359  00000-0  16623-3 0  9996,2 52692  53.2141  16.5191 0001722  77.7592 282.3593 15.08849454118183,6917.851,95.437,540.908,538.525,0.0
52692.0,STARLINK-3993,PAYLOAD,2024-07-04 20:13:25,15.08839536,9.74e-05,53.2164,15.0315,81.3462,278.7641,0.00010494,1.383e-05,0.0,0 STARLINK-3993,1 52692U 22053AN  24186.84265373  .00001383  00000-0  10494-3 0  9991,2 52692  53.2164  15.0315 0000974  81.3462 278.7641 15.08839536118234,6917.882,95.438,540.421,539.073,0.0
52692.0,STARLINK-3993,PAYLOAD,2024-07-05 12:07:16,15.08833474,9.26e-05,53.2175,12.0566,88.0659,272.044,-4.7933e-05,-1.05e-05,0.0,0 STARLINK-3993,1 52692U 22053AN  24187.50505530 -.00001050  00000-0 -47933-4 0  9999,2 52692  53.2175  12.0566 0000926  88.0659 272.0440 15.08833474118734,6917.9,95.438,540.406,539.125,0.0
52692.0,STARLINK-3993,PAYLOAD,2024-07-05 18:28:49,15.08845854,0.0001281,53.2163,10.8663,98.1609,261.9528,0.00029448,4.403e-05,0.0,0 STARLINK-3993,1 52692U 22053AN  24187.77001277  .00004403  00000-0  29448-3 0  9990,2 52692  53.2163  10.8663 0001281  98.1609 261.9528 15.08845854118770,6917.862,95.437,540.614,538.841,0.0
52692.0,STARLINK-3993,PAYLOAD,2024-07-06 05:36:30,15.08851662,9.24e-05,53.2161,8.7859,85.3236,274.7861,0.00050382,7.742e-05,0.0,0 STARLINK-3993,1 52692U 22053AN  24188.23368995  .00007742  00000-0  50382-3 0  9995,2 52692  53.2161   8.7859 0000924  85.3236 274.7861 15.08851662118448,6917.845,95.437,540.349,539.071,0.0
52692.0,STARLINK-3993,PAYLOAD,2024-07-06 18:19:36,15.0883334,9.77e-05,53.2165,6.4074,81.3782,278.732,0.00011008,1.464e-05,0.0,0 STARLINK-3993,1 52692U 22053AN  24188.76361559  .00001464  00000-0  11008-3 0  9999,2 52692  53.2165   6.4074 0000977  81.3782 278.7320 15.08833340118522,6917.901,95.438,540.442,539.09,0.0
52692.0,STARLINK-3993,PAYLOAD,2024-07-07 05:27:18,15.088445,0.0001262,53.2176,4.3243,93.3956,266.718,0.00075996,0.00011829,0.0,0 STARLINK-3993,1 52692U 22053AN  24189.22729613  .00011829  00000-0  75996-3 0  9992,2 52692  53.2176   4.3243 0001262  93.3956 266.7180 15.08844500118591,6917.867,95.437,540.605,538.859,0.0
52692.0,STARLINK-3993,PAYLOAD,2024-07-07 16:35:00,15.08838661,0.0001371,53.2191,2.2454,92.0599,268.055,0.00026531,3.937e-05,0.0,0 STARLINK-3993,1 52692U 22053AN  24189.69097928  .00003937  00000-0  26531-3 0  9992,2 52692  53.2191   2.2454 0001371  92.0599 268.0550 15.08838661118664,6917.884,95.438,540.698,538.801,0.0
52692.0,STARLINK-3993,PAYLOAD,2024-07-08 14:50:24,15.08844485,0.0001373,53.2184,358.0792,113.256,246.8576,0.00024966,3.688e-05,0.0,0 STARLINK-3993,1 52692U 22053AN  24190.61833707  .00003688  00000-0  24966-3 0  9992,2 52692  53.2184 358.0792 0001373 113.2560 246.8576 15.08844485119203,6917.867,95.437,540.682,538.782,0.0
52692.0,STARLINK-3993,PAYLOAD,2024-07-08 18:01:10,15.08843589,0.0001057,53.2181,357.488,81.1208,278.9904,0.00026545,3.94e-05,0.0,0 STARLINK-3993,1 52692U 22053AN  24190.75081855  .00003940  00000-0  26545-3 0  9992,2 52692  53.2181 357.4880 0001057  81.1208 278.9904 15.08843589118824,6917.869,95.437,540.466,539.003,0.0
52692.0,STARLINK-3993,PAYLOAD,2024-07-09 14:41:11,15.08834027,0.0001286,53.2187,353.623,96.8382,263.2757,-7.5744e-05,-1.493e-05,0.0,0 STARLINK-3993,1 52692U 22053AN  24191.61194097 -.00001493  00000-0 -75744-4 0  9990,2 52692  53.2187 353.6230 0001286  96.8382 263.2757 15.08834027119356,6917.899,95.438,540.653,538.874,0.0
52692.0,STARLINK-3993,PAYLOAD,2024-07-09 17:51:57,15.08834963,0.0001286,53.2188,353.0283,95.7671,264.3467,-5.0464e-05,-1.091e-05,0.0,0 STARLINK-3993,1 52692U 22053AN  24191.74442100 -.00001091  00000-0 -50464-4 0  9991,2 52692  53.2188 353.0283 0001286  95.7671 264.3467 15.08834963118974,6917.896,95.438,540.65,538.871,0.0
52692.0,STARLINK-3993,PAYLOAD,2024-07-10 03:24:16,15.088435,0.000128,53.219,351.2464,104.7226,255.3908,0.00017182,2.448e-05,0.0,0 STARLINK-3993,1 52692U 22053AN  24192.14185880  .00002448  00000-0  17182-3 0  9999,2 52692  53.2190 351.2464 0001280 104.7226 255.3908 15.08843500119034,6917.87,95.437,540.62,538.849,0.0
52692.0,STARLINK-3993,PAYLOAD,2024-07-10 17:42:45,15.08837238,0.0001227,53.2192,348.57,108.0222,252.0904,5.9791e-05,6.64e-06,0.0,0 STARLINK-3993,1 52692U 22053AN  24192.73802323  .00000664  00000-0  59791-4 0  9993,2 52692  53.2192 348.5700 0001227 108.0222 252.0904 15.08837238119123,6917.889,95.438,540.603,538.905,0.0
52692.0,STARLINK-3993,PAYLOAD,2024-07-11 14:22:46,15.08840754,0.0001439,53.2206,344.7008,85.8002,274.3155,0.00019203,2.77e-05,0.0,0 STARLINK-3993,1 52692U 22053AN  24193.59914352  .00002770  00000-0  19203-3 0  9997,2 52692  53.2206 344.7008 0001439  85.8002 274.3155 15.08840754119651,6917.878,95.438,540.739,538.748,0.0
52692.0,STARLINK-3993,PAYLOAD,2024-07-12 03:05:50,15.0885675,0.000119,53.2184,342.3219,81.2167,278.896,0.00034255,5.17e-05,0.0,0 STARLINK-3993,1 52692U 22053AN  24194.12905420  .00005170  00000-0  34255-3 0  9994,2 52692  53.2184 342.3219 0001190  81.2167 278.8960 15.08856750119331,6917.829,95.436,540.517,538.871,0.0
52692.0,STARLINK-3993,PAYLOAD,2024-07-12 09:27:22,15.08852828,0.0001732,53.216,341.1301,79.4325,280.6862,0.00028941,4.322e-05,0.0,0 STARLINK-3993,1 52692U 22053AN  24194.39401571  .00004322  00000-0  28941-3 0  9994,2 52692  53.2160 341.1301 0001732  79.4325 280.6862 15.08852828119379,6917.841,95.437,540.904,538.508,0.0
52692.0,STARLINK-3993,PAYLOAD,2024-07-12 14:13:28,15.08936061,0.0001445,53.2168,340.2375,95.0321,265.0837,0.0014395,0.00022756,0.0,0 STARLINK-3993,1 52692U 22053AN  24194.59268812  .00022756  00000-0  14395-2 0  9993,2 52692  53.2168 340.2375 0001445  95.0321 265.0837 15.08936061119808,6917.587,95.431,540.451,538.452,0.0
